     3.00           N                   E                   RINEX VERSION / TYPE
BRD_USR             ESA                 20190102 071804  UTCPGM / RUN BY / DATE
 GAL   2.8750E+01  3.5938E-01  8.5449E-04  0.0000E+00       IONOSPHERIC CORR
GAUT  0.0000000000E+00 0.000000000E+00 259200 2034 GSTB   0 TIME SYSTEM CORR
GPGA -1.6589183360E-09-1.199040867E-14 259200 2034 GSTB   0 TIME SYSTEM CORR
                                                            END OF HEADER
E12 2019 01 02 04 50 00 5.850736284629E-03 8.428457931586E-11 0.000000000000E+00
     7.700000000000E+01-1.260000000000E+02 2.564035373794E-09-1.558329770484E+00
    -5.895271897316E-06 3.652853192762E-04 1.127645373344E-05 5.440614652634E+03
     2.766000000000E+05 2.793967723846E-08-7.384034795717E-01-3.539025783539E-08
     9.820552125529E-01 1.041562500000E+02-9.231526696084E-01-5.346294123181E-09
     1.428630936784E-11 5.210000000000E+02 2.034000000000E+03 0.000000000000E+00
     3.120000000000E+00 0.000000000000E+00-1.583248376846E-08-1.629814505577E-08
     2.772850000000E+05 0.000000000000E+00 0.000000000000E+00 0.000000000000E+00
E13 2019 01 02 04 50 00 3.812286886387E-04 4.831690603169E-13 0.000000000000E+00
     7.700000000000E+01-1.310000000000E+02 2.501175612575E-09 1.478729053561E+00
    -6.157904863358E-06 3.315671347082E-04 9.413808584213E-06 5.440609575272E+03
     2.766000000000E+05-1.676380634308E-08-7.436958636778E-01-2.048909664154E-08
     9.852837571833E-01 1.507187500000E+02-1.616016903533E+00-5.281648573292E-09
    -5.214502919263E-11 5.210000000000E+02 2.034000000000E+03 0.000000000000E+00
     3.120000000000E+00 4.550000000000E+02-4.190951585770E-09-5.122274160385E-09
     2.772850000000E+05 0.000000000000E+00 0.000000000000E+00 0.000000000000E+00
E14 2019 01 02 04 50 00 6.466022809036E-03-5.599076757790E-12 0.000000000000E+00
     7.700000000000E+01-4.668750000000E+01 6.915288049505E-09-2.780155982027E-01
    -2.408400177956E-06 1.663102668244E-01 6.880611181259E-06 5.289310756683E+03
     2.766000000000E+05-2.322718501091E-06-1.337897043159E+00 3.315508365631E-07
     8.826041792296E-01 2.277187500000E+02 1.450083822886E+00-1.179049112128E-08
    -4.843058875699E-10 5.210000000000E+02 2.034000000000E+03 0.000000000000E+00
     3.120000000000E+00 4.550000000000E+02 3.329478204250E-08 3.725290298462E-08
     2.772850000000E+05 0.000000000000E+00 0.000000000000E+00 0.000000000000E+00
E19 2019 01 02 04 50 00-9.437790140510E-06 2.700062395888E-13 0.000000000000E+00
     7.700000000000E+01-2.953125000000E+01 3.550505035643E-09 4.005090790622E-01
    -1.452863216400E-06 1.312042586505E-04 5.632638931274E-06 5.440606470108E+03
     2.766000000000E+05 2.980232238770E-08 1.363605457012E+00 3.352761268616E-08
     9.579376650574E-01 2.197187500000E+02 2.151780790444E+00-5.727738583303E-09
    -3.296565886630E-10 5.210000000000E+02 2.034000000000E+03 0.000000000000E+00
     3.120000000000E+00 0.000000000000E+00-8.614733815193E-09-9.080395102501E-09
     2.772850000000E+05 0.000000000000E+00 0.000000000000E+00 0.000000000000E+00
E24 2019 01 02 04 50 00 6.307425210252E-03-1.972466634470E-11 0.000000000000E+00
     7.700000000000E+01 1.771562500000E+02 2.785830326729E-09-1.623307689327E+00
     8.184462785721E-06 4.576070932671E-04 4.604458808899E-06 5.440616622925E+03
     2.766000000000E+05-7.078051567078E-08-2.820621757555E+00-7.450580596924E-08
     9.878715422321E-01 2.500000000000E+02 4.327227253470E-01-5.597376010321E-09
     3.835874065266E-10 5.210000000000E+02 2.034000000000E+03 0.000000000000E+00
     3.120000000000E+00 0.000000000000E+00 4.260800778866E-08 4.796311259270E-08
     2.772850000000E+05 0.000000000000E+00 0.000000000000E+00 0.000000000000E+00
E26 2019 01 02 04 50 00 5.066930258181E-03-4.331468517194E-11 0.000000000000E+00
     7.700000000000E+01-1.217187500000E+02 2.711898675751E-09 1.213469514379E+00
    -5.690380930901E-06 3.267829306424E-04 1.028180122375E-05 5.440612625122E+03
     2.766000000000E+05-2.235174179077E-08-7.347434019033E-01-1.862645149231E-09
     9.783984264502E-01 1.300625000000E+02-2.132343406079E+00-5.345579807713E-09
    -1.000041655749E-11 5.210000000000E+02 2.034000000000E+03 0.000000000000E+00
     3.120000000000E+00 0.000000000000E+00 1.396983861923E-09 1.396983861923E-09
     2.772850000000E+05 0.000000000000E+00 0.000000000000E+00 0.000000000000E+00
E27 2019 01 02 04 50 00 5.580956931226E-04-7.688072400924E-12 0.000000000000E+00
     7.700000000000E+01 1.599062500000E+02 2.654039122811E-09 2.937548304084E+00
     7.394701242447E-06 2.106289612129E-04 5.155801773071E-06 5.440633995056E+03
     2.766000000000E+05-5.587935447693E-09-2.826689570167E+00 3.725290298462E-08
     9.898421514016E-01 2.407500000000E+02-9.637893534666E-01-5.521301412937E-09
     3.003696544589E-10 5.210000000000E+02 2.034000000000E+03 0.000000000000E+00
     3.120000000000E+00 0.000000000000E+00-2.793967723846E-09-3.259629011154E-09
     2.772850000000E+05 0.000000000000E+00 0.000000000000E+00 0.000000000000E+00
E30 2019 01 02 04 50 00 5.221695988439E-03-3.043965079996E-11 0.000000000000E+00
     7.700000000000E+01 1.639375000000E+02 2.698683839586E-09 2.261279329463E+00
     7.733702659607E-06 2.905082656071E-04 5.837529897690E-06 5.440618459702E+03
     2.766000000000E+05 1.210719347000E-07-2.820677297240E+00 2.607703208923E-08
     9.878565897464E-01 2.249687500000E+02 4.775930809603E-01-5.397724836905E-09
     3.128701751558E-10 5.210000000000E+02 2.034000000000E+03 0.000000000000E+00
     3.120000000000E+00 0.000000000000E+00-3.026798367500E-09-3.725290298462E-09
     2.772850000000E+05 0.000000000000E+00 0.000000000000E+00 0.000000000000E+00
E31 2019 01 02 04 50 00 9.432022925466E-04-9.734435479913E-12 0.000000000000E+00
     7.700000000000E+01 1.625312500000E+02 2.794759270084E-09 1.161557471348E+00
     7.623806595802E-06 2.646079519764E-04 4.392117261887E-06 5.440629686356E+03
     2.766000000000E+05-1.173466444016E-07-2.826737871333E+00-9.126961231232E-08
     9.898444174617E-01 2.608437500000E+02-1.543973363934E+00-5.728452898771E-09
     3.300137463972E-10 5.210000000000E+02 2.034000000000E+03 0.000000000000E+00
     3.120000000000E+00 0.000000000000E+00 0.000000000000E+00 0.000000000000E+00
     2.772850000000E+05 0.000000000000E+00 0.000000000000E+00 0.000000000000E+00
E01 2019 01 02 04 50 00-5.119384732097E-04-8.157030606526E-12 0.000000000000E+00
     7.700000000000E+01 1.566250000000E+02 2.773329806033E-09 1.317666530443E+00
     7.322058081627E-06 1.194851938635E-04 4.410743713379E-06 5.440620765686E+03
     2.766000000000E+05 7.450580596924E-08-2.824100053023E+00 1.862645149231E-08
     9.903053566160E-01 2.625312500000E+02-9.326407437277E-01-5.548802558470E-09
     2.942979729776E-10 2.580000000000E+02 2.034000000000E+03 0.000000000000E+00
     3.120000000000E+00 0.000000000000E+00-4.423782229424E-09 0.000000000000E+00
     2.773000000000E+05 0.000000000000E+00 0.000000000000E+00 0.000000000000E+00
E02 2019 01 02 04 50 00 4.162144614384E-05 1.577404873387E-12 0.000000000000E+00
     7.700000000000E+01 1.695000000000E+02 2.738328348081E-09-2.449602861392E+00
     7.869675755501E-06 2.678531454876E-04 5.727633833885E-06 5.440624170303E+03
     2.766000000000E+05-6.146728992462E-08-2.824132402530E+00-4.284083843231E-08
     9.903127414264E-01 2.328750000000E+02-3.086735788650E-01-5.557374344091E-09
     3.217991185107E-10 2.580000000000E+02 2.034000000000E+03 0.000000000000E+00
     3.120000000000E+00 0.000000000000E+00-6.286427378654E-09 0.000000000000E+00
     2.773000000000E+05 0.000000000000E+00 0.000000000000E+00 0.000000000000E+00
E05 2019 01 02 04 50 00 1.321816816926E-04-6.551204023708E-12 0.000000000000E+00
     7.700000000000E+01-3.000000000000E+01 3.680510450891E-09-1.348210976959E+00
    -1.411885023117E-06 1.502037048340E-04 5.522742867470E-06 5.440605051041E+03
     2.766000000000E+05 6.891787052155E-08 1.366892712934E+00 5.587935447693E-09
     9.521801578513E-01 2.174375000000E+02 1.466629761371E+00-5.789169713584E-09
    -2.678683006471E-10 2.580000000000E+02 2.034000000000E+03 0.000000000000E+00
     3.120000000000E+00 0.000000000000E+00-1.396983861923E-09 0.000000000000E+00
     2.773000000000E+05 0.000000000000E+00 0.000000000000E+00 0.000000000000E+00
E07 2019 01 02 04 50 00-1.048628473654E-04-7.105427357601E-12 0.000000000000E+00
     7.700000000000E+01-3.434375000000E+01 3.599078487494E-09-2.325271975906E+00
    -1.519918441772E-06 1.595934154466E-04 5.351379513741E-06 5.440608497620E+03
     2.766000000000E+05-3.539025783539E-08 1.366910708289E+00 1.676380634308E-08
     9.522105411968E-01 2.224062500000E+02 8.581361736161E-02-5.795598552800E-09
    -2.557249376844E-10 2.580000000000E+02 2.034000000000E+03 0.000000000000E+00
     3.120000000000E+00 0.000000000000E+00 4.656612873077E-10 0.000000000000E+00
     2.773000000000E+05 0.000000000000E+00 0.000000000000E+00 0.000000000000E+00
E11 2019 01 02 04 50 00 5.718726781197E-03 1.207922650792E-12 0.000000000000E+00
     7.700000000000E+01-1.473750000000E+02 2.624752188607E-09-2.919656564352E+00
    -6.867572665215E-06 2.345083048567E-04 1.149810850620E-05 5.440607553482E+03
     2.766000000000E+05-4.842877388000E-08-7.383880077501E-01 1.490116119385E-08
     9.820413631075E-01 1.004375000000E+02-3.655113577695E-01-5.293434778520E-09
     7.143154683922E-12 2.580000000000E+02 2.034000000000E+03 0.000000000000E+00
     3.120000000000E+00 0.000000000000E+00-1.862645149231E-08 0.000000000000E+00
     2.773000000000E+05 0.000000000000E+00 0.000000000000E+00 0.000000000000E+00
